[{"OBJECT_NAME":"ONEWEB-0121","OBJECT_ID":"2020-100K","EPOCH":"2026-04-07T03:56:02.852160","MEAN_MOTION":13.12443576,"ECCENTRICITY":0.0001953,"INCLINATION":87.9017,"RA_OF_ASC_NODE":4.7594,"ARG_OF_PERICENTER":82.7266,"MEAN_ANOMALY":277.4085,"EPHEMERIS_TYPE":0,"CLASSIFICATION_TYPE":"U","NORAD_CAT_ID":47267,"ELEMENT_SET_NO":999,"REV_AT_EPOCH":25532,"BSTAR":-0.0011255,"MEAN_MOTION_DOT":-3.92e-06,"MEAN_MOTION_DDOT":0.0},{"OBJECT_NAME":"ONEWEB-0122","OBJECT_ID":"2020-100L","EPOCH":"2026-04-07T03:47:30.932160","MEAN_MOTION":13.12444784,"ECCENTRICITY":0.0001915,"INCLINATION":87.9021,"RA_OF_ASC_NODE":4.764,"ARG_OF_PERICENTER":75.4902,"MEAN_ANOMALY":284.6439,"EPHEMERIS_TYPE":0,"CLASSIFICATION_TYPE":"U","NORAD_CAT_ID":47268,"ELEMENT_SET_NO":999,"REV_AT_EPOCH":25523,"BSTAR":-0.001095,"MEAN_MOTION_DOT":-3.81e-06,"MEAN_MOTION_DDOT":0.0},{"OBJECT_NAME":"ONEWEB-0123","OBJECT_ID":"2020-100M","EPOCH":"2026-04-07T03:41:24.614304","MEAN_MOTION":13.12441324,"ECCENTRICITY":0.0001693,"INCLINATION":87.9006,"RA_OF_ASC_NODE":4.7805,"ARG_OF_PERICENTER":78.3622,"MEAN_ANOMALY":281.7697,"EPHEMERIS_TYPE":0,"CLASSIFICATION_TYPE":"U","NORAD_CAT_ID":47269,"ELEMENT_SET_NO":999,"REV_AT_EPOCH":25537,"BSTAR":-0.0010242,"MEAN_MOTION_DOT":-3.56e-06,"MEAN_MOTION_DDOT":0.0},{"OBJECT_NAME":"ONEWEB-0124","OBJECT_ID":"2020-100N","EPOCH":"2026-04-07T03:26:46.838688","MEAN_MOTION":13.12440843,"ECCENTRICITY":0.0001789,"INCLINATION":87.9004,"RA_OF_ASC_NODE":4.7869,"ARG_OF_PERICENTER":83.2205,"MEAN_ANOMALY":276.9127,"EPHEMERIS_TYPE":0,"CLASSIFICATION_TYPE":"U","NORAD_CAT_ID":47270,"ELEMENT_SET_NO":999,"REV_AT_EPOCH":25525,"BSTAR":-0.00075215,"MEAN_MOTION_DOT":-2.58e-06,"MEAN_MOTION_DDOT":0.0},{"OBJECT_NAME":"ONEWEB-0125","OBJECT_ID":"2020-100P","EPOCH":"2026-04-07T04:44:52.130112","MEAN_MOTION":13.12441759,"ECCENTRICITY":0.0001553,"INCLINATION":87.9015,"RA_OF_ASC_NODE":4.7511,"ARG_OF_PERICENTER":87.2095,"MEAN_ANOMALY":272.9212,"EPHEMERIS_TYPE":0,"CLASSIFICATION_TYPE":"U","NORAD_CAT_ID":47271,"ELEMENT_SET_NO":999,"REV_AT_EPOCH":25532,"BSTAR":0.0008319299999999999,"MEAN_MOTION_DOT":3.12e-06,"MEAN_MOTION_DDOT":0.0},{"OBJECT_NAME":"ONEWEB-0126","OBJECT_ID":"2020-100Q","EPOCH":"2026-04-07T05:14:19.422240","MEAN_MOTION":13.12440351,"ECCENTRICITY":0.0001785,"INCLINATION":87.9009,"RA_OF_ASC_NODE":4.7674,"ARG_OF_PERICENTER":74.6062,"MEAN_ANOMALY":285.5263,"EPHEMERIS_TYPE":0,"CLASSIFICATION_TYPE":"U","NORAD_CAT_ID":47272,"ELEMENT_SET_NO":999,"REV_AT_EPOCH":25539,"BSTAR":-0.00065064,"MEAN_MOTION_DOT":-2.21e-06,"MEAN_MOTION_DDOT":0.0},{"OBJECT_NAME":"ONEWEB-0127","OBJECT_ID":"2020-100R","EPOCH":"2026-04-07T04:25:21.330624","MEAN_MOTION":13.12443303,"ECCENTRICITY":0.0001837,"INCLINATION":87.9003,"RA_OF_ASC_NODE":4.7763,"ARG_OF_PERICENTER":74.25,"MEAN_ANOMALY":285.8831,"EPHEMERIS_TYPE":0,"CLASSIFICATION_TYPE":"U","NORAD_CAT_ID":47273,"ELEMENT_SET_NO":999,"REV_AT_EPOCH":25541,"BSTAR":0.00076618,"MEAN_MOTION_DOT":2.88e-06,"MEAN_MOTION_DDOT":0.0},{"OBJECT_NAME":"ONEWEB-0128","OBJECT_ID":"2020-100S","EPOCH":"2026-04-07T04:57:03.359232","MEAN_MOTION":13.12440787,"ECCENTRICITY":0.0002098,"INCLINATION":87.9004,"RA_OF_ASC_NODE":4.7863,"ARG_OF_PERICENTER":83.0557,"MEAN_ANOMALY":277.0811,"EPHEMERIS_TYPE":0,"CLASSIFICATION_TYPE":"U","NORAD_CAT_ID":47274,"ELEMENT_SET_NO":999,"REV_AT_EPOCH":25543,"BSTAR":0.0006071200000000001,"MEAN_MOTION_DOT":2.31e-06,"MEAN_MOTION_DDOT":0.0},{"OBJECT_NAME":"ONEWEB-0129","OBJECT_ID":"2020-100T","EPOCH":"2026-04-07T04:27:46.912032","MEAN_MOTION":13.12442763,"ECCENTRICITY":0.0002219,"INCLINATION":87.9014,"RA_OF_ASC_NODE":4.7564,"ARG_OF_PERICENTER":48.1819,"MEAN_ANOMALY":311.9499,"EPHEMERIS_TYPE":0,"CLASSIFICATION_TYPE":"U","NORAD_CAT_ID":47275,"ELEMENT_SET_NO":999,"REV_AT_EPOCH":25536,"BSTAR":0.00068247,"MEAN_MOTION_DOT":2.58e-06,"MEAN_MOTION_DDOT":0.0},{"OBJECT_NAME":"ONEWEB-0130","OBJECT_ID":"2020-100U","EPOCH":"2026-04-07T03:17:01.654944","MEAN_MOTION":13.12441099,"ECCENTRICITY":0.0001872,"INCLINATION":87.9015,"RA_OF_ASC_NODE":4.7609,"ARG_OF_PERICENTER":76.2737,"MEAN_ANOMALY":283.86,"EPHEMERIS_TYPE":0,"CLASSIFICATION_TYPE":"U","NORAD_CAT_ID":47276,"ELEMENT_SET_NO":999,"REV_AT_EPOCH":25532,"BSTAR":-0.00012438,"MEAN_MOTION_DOT":-3.2e-07,"MEAN_MOTION_DDOT":0.0},{"OBJECT_NAME":"ONEWEB-0131","OBJECT_ID":"2020-100V","EPOCH":"2026-04-07T03:12:09.101952","MEAN_MOTION":13.12440732,"ECCENTRICITY":0.0001835,"INCLINATION":87.9003,"RA_OF_ASC_NODE":4.7875,"ARG_OF_PERICENTER":78.141,"MEAN_ANOMALY":281.9924,"EPHEMERIS_TYPE":0,"CLASSIFICATION_TYPE":"U","NORAD_CAT_ID":47277,"ELEMENT_SET_NO":999,"REV_AT_EPOCH":25536,"BSTAR":0.00024193,"MEAN_MOTION_DOT":1e-06,"MEAN_MOTION_DDOT":0.0},{"OBJECT_NAME":"ONEWEB-0132","OBJECT_ID":"2020-100W","EPOCH":"2026-04-07T03:53:36.964896","MEAN_MOTION":13.12443012,"ECCENTRICITY":0.0001864,"INCLINATION":87.9008,"RA_OF_ASC_NODE":4.7813,"ARG_OF_PERICENTER":80.597,"MEAN_ANOMALY":279.5369,"EPHEMERIS_TYPE":0,"CLASSIFICATION_TYPE":"U","NORAD_CAT_ID":47278,"ELEMENT_SET_NO":999,"REV_AT_EPOCH":25526,"BSTAR":-0.0010413,"MEAN_MOTION_DOT":-3.62e-06,"MEAN_MOTION_DDOT":0.0},{"OBJECT_NAME":"ONEWEB-0133","OBJECT_ID":"2020-100X","EPOCH":"2026-04-07T04:17:49.626240","MEAN_MOTION":13.1244402,"ECCENTRICITY":0.0001947,"INCLINATION":87.9021,"RA_OF_ASC_NODE":4.7461,"ARG_OF_PERICENTER":81.3495,"MEAN_ANOMALY":278.7854,"EPHEMERIS_TYPE":0,"CLASSIFICATION_TYPE":"U","NORAD_CAT_ID":47279,"ELEMENT_SET_NO":999,"REV_AT_EPOCH":25542,"BSTAR":0.00030113000000000004,"MEAN_MOTION_DOT":1.21e-06,"MEAN_MOTION_DDOT":0.0},{"OBJECT_NAME":"ONEWEB-0134","OBJECT_ID":"2020-100Y","EPOCH":"2026-04-07T03:34:05.683296","MEAN_MOTION":13.1244137,"ECCENTRICITY":0.0002037,"INCLINATION":87.9018,"RA_OF_ASC_NODE":4.7493,"ARG_OF_PERICENTER":75.674,"MEAN_ANOMALY":284.4615,"EPHEMERIS_TYPE":0,"CLASSIFICATION_TYPE":"U","NORAD_CAT_ID":47280,"ELEMENT_SET_NO":999,"REV_AT_EPOCH":25539,"BSTAR":-0.0009752300000000001,"MEAN_MOTION_DOT":-3.38e-06,"MEAN_MOTION_DDOT":0.0},{"OBJECT_NAME":"ONEWEB-0135","OBJECT_ID":"2020-100Z","EPOCH":"2026-04-07T04:42:25.488576","MEAN_MOTION":13.12441179,"ECCENTRICITY":0.0002115,"INCLINATION":87.9006,"RA_OF_ASC_NODE":4.7721,"ARG_OF_PERICENTER":77.647,"MEAN_ANOMALY":282.4896,"EPHEMERIS_TYPE":0,"CLASSIFICATION_TYPE":"U","NORAD_CAT_ID":47281,"ELEMENT_SET_NO":999,"REV_AT_EPOCH":25542,"BSTAR":0.00092103,"MEAN_MOTION_DOT":3.44e-06,"MEAN_MOTION_DDOT":0.0},{"OBJECT_NAME":"ONEWEB-0136","OBJECT_ID":"2020-100AA","EPOCH":"2026-04-07T03:19:28.447680","MEAN_MOTION":13.12441642,"ECCENTRICITY":0.0002099,"INCLINATION":87.9013,"RA_OF_ASC_NODE":4.759,"ARG_OF_PERICENTER":73.9395,"MEAN_ANOMALY":286.1965,"EPHEMERIS_TYPE":0,"CLASSIFICATION_TYPE":"U","NORAD_CAT_ID":47282,"ELEMENT_SET_NO":999,"REV_AT_EPOCH":25534,"BSTAR":-0.00052391,"MEAN_MOTION_DOT":-1.76e-06,"MEAN_MOTION_DDOT":0.0}]