ONEWEB-0121             
1 47267U 20100K   26097.16392190 -.00000392  00000+0 -11255-2 0  9995
2 47267  87.9017   4.7594 0001953  82.7266 277.4085 13.12443576255324
ONEWEB-0122             
1 47268U 20100L   26097.15799690 -.00000381  00000+0 -10950-2 0  9990
2 47268  87.9021   4.7640 0001915  75.4902 284.6439 13.12444784255231
ONEWEB-0123             
1 47269U 20100M   26097.15375711 -.00000356  00000+0 -10242-2 0  9991
2 47269  87.9006   4.7805 0001693  78.3622 281.7697 13.12441324255378
ONEWEB-0124             
1 47270U 20100N   26097.14359767 -.00000258  00000+0 -75215-3 0  9998
2 47270  87.9004   4.7869 0001789  83.2205 276.9127 13.12440843255252
ONEWEB-0125             
1 47271U 20100P   26097.19782558  .00000312  00000+0  83193-3 0  9995
2 47271  87.9015   4.7511 0001553  87.2095 272.9212 13.12441759255325
ONEWEB-0126             
1 47272U 20100Q   26097.21828035 -.00000221  00000+0 -65064-3 0  9998
2 47272  87.9009   4.7674 0001785  74.6062 285.5263 13.12440351255390
ONEWEB-0127             
1 47273U 20100R   26097.18427466  .00000288  00000+0  76618-3 0  9996
2 47273  87.9003   4.7763 0001837  74.2500 285.8831 13.12443303255412
ONEWEB-0128             
1 47274U 20100S   26097.20628888  .00000231  00000+0  60712-3 0  9997
2 47274  87.9004   4.7863 0002098  83.0557 277.0811 13.12440787255431
ONEWEB-0129             
1 47275U 20100T   26097.18595963  .00000258  00000+0  68247-3 0  9992
2 47275  87.9014   4.7564 0002219  48.1819 311.9499 13.12442763255367
ONEWEB-0130             
1 47276U 20100U   26097.13682471 -.00000032  00000+0 -12438-3 0  9992
2 47276  87.9015   4.7609 0001872  76.2737 283.8600 13.12441099255322
ONEWEB-0131             
1 47277U 20100V   26097.13343868  .00000100  00000+0  24193-3 0  9992
2 47277  87.9003   4.7875 0001835  78.1410 281.9924 13.12440732255368
ONEWEB-0132             
1 47278U 20100W   26097.16223339 -.00000362  00000+0 -10413-2 0  9997
2 47278  87.9008   4.7813 0001864  80.5970 279.5369 13.12443012255265
ONEWEB-0133             
1 47279U 20100X   26097.17904660  .00000121  00000+0  30113-3 0  9993
2 47279  87.9021   4.7461 0001947  81.3495 278.7854 13.12444020255421
ONEWEB-0134             
1 47280U 20100Y   26097.14867689 -.00000338  00000+0 -97523-3 0  9991
2 47280  87.9018   4.7493 0002037  75.6740 284.4615 13.12441370255394
ONEWEB-0135             
1 47281U 20100Z   26097.19612834  .00000344  00000+0  92103-3 0  9991
2 47281  87.9006   4.7721 0002115  77.6470 282.4896 13.12441179255425
ONEWEB-0136             
1 47282U 20100AA  26097.13852370 -.00000176  00000+0 -52391-3 0  9997
2 47282  87.9013   4.7590 0002099  73.9395 286.1965 13.12441642255348
